NORAD_CAT_ID,OBJECT_NAME,OBJECT_TYPE,EPOCH,MEAN_MOTION,ECCENTRICITY,INCLINATION,RA_OF_ASC_NODE,ARG_OF_PERICENTER,MEAN_ANOMALY,BSTAR,MEAN_MOTION_DOT,MEAN_MOTION_DDOT,TLE_LINE0,TLE_LINE1,TLE_LINE2,SEMIMAJOR_AXIS,PERIOD,APOGEE,PERIGEE,DECAYED
51866.0,STARLINK-3553,PAYLOAD,2024-01-26 19:22:17,15.08842891,0.0001376,53.2162,238.5767,84.3239,275.791,0.00016493,2.338e-05,0.0,0 STARLINK-3553,1 51866U 22022Q   24026.80714734  .00002338  00000-0  16493-3 0  9994,2 51866  53.2162 238.5767 0001376  84.3239 275.7910 15.08842891106432,6917.872,95.437,540.688,538.785,0.0
51866.0,STARLINK-3553,PAYLOAD,2024-01-27 14:26:55,15.08841031,0.0001413,53.2162,235.0091,72.6348,287.4799,5.0064e-05,5.09e-06,0.0,0 STARLINK-3553,1 51866U 22022Q   24027.60203291  .00000509  00000-0  50064-4 0  9995,2 51866  53.2162 235.0091 0001413  72.6348 287.4799 15.08841031106550,6917.877,95.437,540.72,538.765,0.0
51866.0,STARLINK-3553,PAYLOAD,2024-01-27 19:13:05,15.08838952,0.0001365,53.2164,234.1186,89.9415,270.1734,2.1387e-05,5.2e-07,0.0,0 STARLINK-3553,1 51866U 22022Q   24027.80075377  .00000052  00000-0  21387-4 0  9998,2 51866  53.2164 234.1186 0001365  89.9415 270.1734 15.08838952106588,6917.884,95.438,540.693,538.804,0.0
51866.0,STARLINK-3553,PAYLOAD,2024-01-28 12:42:19,15.08834915,0.0001493,53.217,230.8496,101.4632,258.6528,4.5262e-05,4.32e-06,0.0,0 STARLINK-3553,1 51866U 22022Q   24028.52939562  .00000432  00000-0  45262-4 0  9993,2 51866  53.2170 230.8496 0001493 101.4632 258.6528 15.08834915106694,6917.896,95.438,540.794,538.728,0.0
51866.0,STARLINK-3553,PAYLOAD,2024-01-28 22:14:38,15.08836003,0.0001385,53.2164,229.0641,87.8869,272.2282,4.0625e-05,3.59e-06,0.0,0 STARLINK-3553,1 51866U 22022Q   24028.92683664  .00000359  00000-0  40625-4 0  9992,2 51866  53.2164 229.0641 0001385  87.8869 272.2282 15.08836003106754,6917.893,95.438,540.716,538.799,0.0
51866.0,STARLINK-3553,PAYLOAD,2024-01-28 23:50:01,15.08836193,0.0001383,53.2163,228.7665,88.2253,271.8898,4.0551e-05,3.57e-06,0.0,0 STARLINK-3553,1 51866U 22022Q   24028.99307661  .00000357  00000-0  40551-4 0  9995,2 51866  53.2163 228.7665 0001383  88.2253 271.8898 15.08836193106764,6917.892,95.438,540.714,538.8,0.0
51866.0,STARLINK-3553,PAYLOAD,2024-01-30 12:23:53,15.08840836,0.0001304,53.2162,221.9267,87.8753,272.2389,8.9508e-05,1.137e-05,0.0,0 STARLINK-3553,1 51866U 22022Q   24030.51659546  .00001137  00000-0  89508-4 0  9990,2 51866  53.2162 221.9267 0001304  87.8753 272.2389 15.08840836106993,6917.878,95.438,540.645,538.841,0.0
51866.0,STARLINK-3553,PAYLOAD,2024-01-30 20:20:49,15.08839112,0.0001277,53.2164,220.4398,87.4467,272.6671,6.2841e-05,7.12e-06,0.0,0 STARLINK-3553,1 51866U 22022Q   24030.84779729  .00000712  00000-0  62841-4 0  9991,2 51866  53.2164 220.4398 0001277  87.4467 272.6671 15.08839112107041,6917.883,95.438,540.632,538.865,0.0
51866.0,STARLINK-3553,PAYLOAD,2024-01-31 12:14:40,15.08841176,0.0001213,53.2176,217.4663,91.8046,268.3085,5.5725e-05,5.99e-06,0.0,0 STARLINK-3553,1 51866U 22022Q   24031.51019609  .00000599  00000-0  55725-4 0  9996,2 51866  53.2176 217.4663 0001213  91.8046 268.3085 15.08841176107142,6917.877,95.437,540.581,538.903,0.0
51866.0,STARLINK-3553,PAYLOAD,2024-01-31 21:46:59,15.08844465,0.0001396,53.2165,215.683,79.065,281.0499,0.00011482,1.54e-05,0.0,0 STARLINK-3553,1 51866U 22022Q   24031.90763117  .00001540  00000-0  11482-3 0  9997,2 51866  53.2165 215.6830 0001396  79.0650 281.0499 15.08844465107209,6917.867,95.437,540.697,538.766,0.0
51866.0,STARLINK-3553,PAYLOAD,2024-02-01 12:05:27,15.08838909,0.000148,53.2151,213.0061,76.8606,283.2552,5.9906e-05,6.66e-06,0.0,0 STARLINK-3553,1 51866U 22022Q   24032.50379613  .00000666  00000-0  59906-4 0  9990,2 51866  53.2151 213.0061 0001480  76.8606 283.2552 15.08838909107291,6917.884,95.438,540.773,538.725,0.0
51866.0,STARLINK-3553,PAYLOAD,2024-02-02 11:56:15,15.08840384,0.0001382,53.2159,208.5453,82.8997,277.2152,4.0084e-05,3.5e-06,0.0,0 STARLINK-3553,1 51866U 22022Q   24033.49739591  .00000350  00000-0  40084-4 0  9991,2 51866  53.2159 208.5453 0001382  82.8997 277.2152 15.08840384107440,6917.879,95.438,540.7,538.788,0.0
51866.0,STARLINK-3553,PAYLOAD,2024-02-02 16:42:24,15.08841386,0.0001645,53.2162,207.6518,112.2888,247.8279,1.9785e-05,2.7e-07,0.0,0 STARLINK-3553,1 51866U 22022Q   24033.69611400  .00000027  00000-0  19785-4 0  9996,2 51866  53.2162 207.6518 0001645 112.2888 247.8279 15.08841386107474,6917.876,95.437,540.879,538.603,0.0
51866.0,STARLINK-3553,PAYLOAD,2024-02-03 11:47:02,15.08836383,0.0001378,53.2163,204.0854,92.3483,267.7667,3.4639e-05,2.63e-06,0.0,0 STARLINK-3553,1 51866U 22022Q   24034.49099859  .00000263  00000-0  34639-4 0  9990,2 51866  53.2163 204.0854 0001378  92.3483 267.7667 15.08836383107597,6917.891,95.438,540.71,538.803,0.0
51866.0,STARLINK-3553,PAYLOAD,2024-02-03 18:08:34,15.08838328,0.0001397,53.2167,202.8962,100.6687,259.4463,4.7538e-05,4.69e-06,0.0,0 STARLINK-3553,1 51866U 22022Q   24034.75595706  .00000469  00000-0  47538-4 0  9991,2 51866  53.2167 202.8962 0001397 100.6687 259.4463 15.08838328107635,6917.885,95.438,540.717,538.784,0.0
51866.0,STARLINK-3553,PAYLOAD,2024-02-04 03:40:54,15.08828794,0.0001369,53.2163,201.1106,93.0083,267.1065,-1.9093e-05,-5.92e-06,0.0,0 STARLINK-3553,1 51866U 22022Q   24035.15340504 -.00000592  00000-0 -19093-4 0  9994,2 51866  53.2163 201.1106 0001369  93.0083 267.1065 15.08828794107693,6917.915,95.438,540.727,538.833,0.0
51866.0,STARLINK-3553,PAYLOAD,2024-02-04 14:48:35,15.08837467,0.0001264,53.2159,199.0292,94.6517,265.462,5.9746e-05,6.63e-06,0.0,0 STARLINK-3553,1 51866U 22022Q   24035.61707992  .00000663  00000-0  59746-4 0  9999,2 51866  53.2159 199.0292 0001264  94.6517 265.4620 15.08837467107765,6917.888,95.438,540.628,538.879,0.0
51866.0,STARLINK-3553,PAYLOAD,2024-02-04 19:34:44,15.08840386,0.0001256,53.2161,198.1373,94.3441,265.7694,8.7904e-05,1.111e-05,0.0,0 STARLINK-3553,1 51866U 22022Q   24035.81579827  .00001111  00000-0  87904-4 0  9991,2 51866  53.2161 198.1373 0001256  94.3441 265.7694 15.08840386107793,6917.879,95.438,540.613,538.875,0.0
51866.0,STARLINK-3553,PAYLOAD,2024-02-04 21:10:07,15.08842969,0.0001274,53.216,197.8397,94.7889,265.3249,0.000105,1.384e-05,0.0,0 STARLINK-3553,1 51866U 22022Q   24035.88203648  .00001384  00000-0  10500-3 0  9992,2 51866  53.2160 197.8397 0001274  94.7889 265.3249 15.08842969107807,6917.871,95.437,540.618,538.855,0.0
51866.0,STARLINK-3553,PAYLOAD,2024-02-04 22:45:30,15.0884674,0.0001184,53.2159,197.5419,100.3793,259.7333,0.00013925,1.929e-05,0.0,0 STARLINK-3553,1 51866U 22022Q   24035.94827239  .00001929  00000-0  13925-3 0  9996,2 51866  53.2159 197.5419 0001184 100.3793 259.7333 15.08846740107818,6917.86,95.437,540.544,538.906,0.0
51866.0,STARLINK-3553,PAYLOAD,2024-02-05 11:28:36,15.08838389,0.0001183,53.2161,195.1635,93.3011,266.8116,6.1339e-05,6.88e-06,0.0,0 STARLINK-3553,1 51866U 22022Q   24036.47820283  .00000688  00000-0  61339-4 0  9991,2 51866  53.2161 195.1635 0001183  93.3011 266.8116 15.08838389107894,6917.885,95.438,540.569,538.932,0.0
51866.0,STARLINK-3553,PAYLOAD,2024-02-05 14:39:22,15.08841203,0.0001198,53.215,194.5686,91.6901,268.4228,8.1883e-05,1.016e-05,0.0,0 STARLINK-3553,1 51866U 22022Q   24036.61067881  .00001016  00000-0  81883-4 0  9996,2 51866  53.2150 194.5686 0001198  91.6901 268.4228 15.08841203107910,6917.877,95.437,540.57,538.913,0.0
51866.0,STARLINK-3553,PAYLOAD,2024-02-05 19:25:31,15.08846222,0.0001204,53.215,193.6769,89.2737,270.8393,0.00019125,2.758e-05,0.0,0 STARLINK-3553,1 51866U 22022Q   24036.80939712  .00002758  00000-0  19125-3 0  9991,2 51866  53.2150 193.6769 0001204  89.2737 270.8393 15.08846222107949,6917.861,95.437,540.559,538.893,0.0
51866.0,STARLINK-3553,PAYLOAD,2024-02-05 21:00:54,15.08850065,0.000119,53.215,193.3793,90.1112,270.0017,0.0002292,3.363e-05,0.0,0 STARLINK-3553,1 51866U 22022Q   24036.87563518  .00003363  00000-0  22920-3 0  9995,2 51866  53.2150 193.3793 0001190  90.1112 270.0017 15.08850065107951,6917.85,95.437,540.538,538.891,0.0
51866.0,STARLINK-3553,PAYLOAD,2024-02-06 14:30:09,15.0885317,0.0001321,53.2139,190.1082,85.1797,274.9346,0.00085894,0.00013413,0.0,0 STARLINK-3553,1 51866U 22022Q   24037.60427933  .00013413  00000-0  85894-3 0  9993,2 51866  53.2139 190.1082 0001321  85.1797 274.9346 15.08853170108064,6917.84,95.437,540.619,538.791,0.0
51866.0,STARLINK-3553,PAYLOAD,2024-02-06 20:51:42,15.08860624,0.0001361,53.2137,188.9193,81.8167,278.2979,0.00164,0.00025924,0.0,0 STARLINK-3553,1 51866U 22022Q   24037.86923784  .00025924  00000-0  16400-2 0  9992,2 51866  53.2137 188.9193 0001361  81.8167 278.2979 15.08860624108104,6917.817,95.436,540.624,538.741,0.0
51866.0,STARLINK-3553,PAYLOAD,2024-02-06 22:27:05,15.08864149,0.0001376,53.2137,188.6217,80.6842,279.4306,0.0016431,0.00025976,0.0,0 STARLINK-3553,1 51866U 22022Q   24037.93547686  .00025976  00000-0  16431-2 0  9994,2 51866  53.2137 188.6217 0001376  80.6842 279.4306 15.08864149108115,6917.807,95.436,540.623,538.72,0.0
51866.0,STARLINK-3553,PAYLOAD,2024-02-07 14:20:56,15.08845447,0.0001316,53.214,185.6481,77.2437,282.8702,0.0011849,0.00018623,0.0,0 STARLINK-3553,1 51866U 22022Q   24038.59788163  .00018623  00000-0  11849-2 0  9993,2 51866  53.2140 185.6481 0001316  77.2437 282.8702 15.08845447108214,6917.864,95.437,540.639,538.818,0.0
51866.0,STARLINK-3553,PAYLOAD,2024-02-07 15:56:20,15.08848956,0.0001419,53.214,185.3508,91.0437,269.0718,0.0012673,0.00019944,0.0,0 STARLINK-3553,1 51866U 22022Q   24038.66412082  .00019944  00000-0  12673-2 0  9998,2 51866  53.2140 185.3508 0001419  91.0437 269.0718 15.08848956108222,6917.853,95.437,540.7,538.736,0.0
51866.0,STARLINK-3553,PAYLOAD,2024-02-08 09:25:35,15.08844766,0.000148,53.2142,182.0787,86.8563,273.2599,0.0014113,0.00022247,0.0,0 STARLINK-3553,1 51866U 22022Q   24039.39276628  .00022247  00000-0  14113-2 0  9994,2 51866  53.2142 182.0787 0001480  86.8563 273.2599 15.08844766108338,6917.866,95.437,540.755,538.707,0.0
